#cP2015  9 30  0  0  0.00000000      96 ORBIT IGb08 HLM  IGS
## 1864 259200.00000000   900.00000000 57295 0.0000000000000
+   32   G01G02G03G04G05G06G07G08G09G10G11G12G13G14G15G16G17
+        G18G19G20G21G22G23G24G25G26G27G28G29G30G31G32  0  0
+          0  0  0  0  0  0  0  0  0  0  0  0  0  0  0  0  0
+          0  0  0  0  0  0  0  0  0  0  0  0  0  0  0  0  0
+          0  0  0  0  0  0  0  0  0  0  0  0  0  0  0  0  0
++         2  2  2  2  2  2  2  2  2  3  2  2  2  2  2  3  2
++         2  2  2  2  2  2  2  3  5  2  2  2  2  2  3  0  0
++         0  0  0  0  0  0  0  0  0  0  0  0  0  0  0  0  0
++         0  0  0  0  0  0  0  0  0  0  0  0  0  0  0  0  0
++         0  0  0  0  0  0  0  0  0  0  0  0  0  0  0  0  0
%c G  cc GPS ccc cccc cccc cccc cccc ccccc ccccc ccccc ccccc
%c cc cc ccc ccc cccc cccc cccc cccc ccccc ccccc ccccc ccccc
%f  1.2500000  1.025000000  0.00000000000  0.000000000000000
%f  0.0000000  0.000000000  0.00000000000  0.000000000000000
%i    0    0    0    0      0      0      0      0         0
%i    0    0    0    0      0      0      0      0         0
/* FINAL ORBIT COMBINATION FROM WEIGHTED AVERAGE OF:        
/* cod emr esa gfz grg jpl mit ngs sio                      
/* REFERENCED TO IGS TIME (IGST) AND TO WEIGHTED MEAN POLE: 
/* PCV:IGS08_1864 OL/AL:FES2004  NONE     Y  ORB:CMB CLK:CMB
*  2015  9 30 12 45  0.00000000
PG01  13583.076421 -19746.882984  11151.993468      1.455789  4  4  1 111       
PG02 -15091.427839  -3315.983998 -21212.701155    590.984481  7  4  7 104       
PG03  20277.876101 -13246.352404 -10917.507533     21.145965  6  7  8 110       
PG04  15979.667768 -11456.523188  17386.029611    -26.515061  6  3  3  60       
PG05 -25445.380517   1004.903015  -7949.779416   -190.032522  7  4  5 122       
PG06  -9556.900383 -15733.949328 -19148.693561     67.911927  7  3  5  86       
PG07   5340.722548 -25610.679195   3246.702285    483.848139  6  5  3 122       
PG08  16912.428292  -3149.906817  20274.917699     -7.088624  5  5  3  64       
PG09  -1690.079787 -19534.096431 -17916.662085     -6.394495  7  4  1 116       
PG10  22698.218186  11083.170988   8912.810247      1.456381  6  5  8 135       
PG11  11815.689512 -16594.498904  16449.118935   -607.350084  7  4  3  82       
PG12 -22363.978143  10865.424662  -9135.939254    332.715371  9  5  5  98       
PG13 -19799.993094  -7800.587882  15690.756040   -153.130240  9  5  6 110       
PG14  13883.194699  22136.503215   5453.161086     31.200532  6  4  5  83       
PG15 -16828.336064   4743.280724  19978.832778   -274.352201  9  7  6 116       
PG16  25412.771255    709.709760  -8401.477849    -81.267633 10  6 10 106       
PG17 -14888.577139 -21599.894119   5122.194722   -189.456922  7  5  5 104       
PG18  -1956.608744  16906.669815  20848.230299    438.542620  6  5  3  72       
PG19   9337.484631 -11908.253745  21585.750750   -520.869563  6  5  4  80       
PG20 -21972.669404  13182.549800   6988.896585    359.409168  7  2  4 111       
PG21  -1206.498110  25630.691319   6866.292912   -483.430602  5  3  4 106       
PG22  12511.804162  12301.831730  20218.575783    396.345076  4  2  4 111       
PG23  11298.991563 -10508.983503 -21454.946303   -136.179942  8  6  3 115       
PG24 -14382.646610  17667.303301  13487.678819     -5.555494  8  6  6  96       
PG25 -11269.939815  15665.958739 -18273.264759    -45.844463  9  9  9  80       
PG26  19554.512567   6800.881195 -16643.265900    -68.600765 14  9 13 106       
PG27  21435.671307   8631.789696  13176.271135     23.761134  6  3  4 104       
PG28  -7690.140948 -13417.422128  22231.745378    471.145474  5  4  3 101       
PG29  -1395.389661  18166.137700 -19327.480326    637.093208  5  4  4  84       
PG30  -1932.738116 -22869.324690  13296.770236     33.308567  6  1  2  90       
PG31   9398.886884  14875.116854 -19655.592991    300.964455  5  6  4 118       
PG32  25793.425568  -4926.320682   -420.378015 999999.999999
*  2015  9 30 13  0  0.00000000
PG01  13458.275311 -18307.237020  13514.103186      1.456461  4  4    112       
PG02 -14594.045346  -5773.168795 -21075.782658    590.986037  6  4  7  28       
PG03  21401.287764 -13341.527300  -8361.767524     21.145607  7  7  7 101       
PG04  15700.384258  -9314.315596  18853.320013    -26.519282  6  3  3  78       
PG05 -24521.334073    456.702490 -10495.749068   -190.028889  7  4  4  94       
PG06  -8944.650778 -17750.315490 -17621.186219     67.918336  7  3  5  70       
PG07   5643.612529 -25732.462577    361.747469    483.847496  7  5  2 110       
PG08  18475.624465  -1538.316345  19056.722268     -7.089510  5  6  3  84       
PG09    -37.332445 -18177.690105 -19366.962988     -6.392028  7  4    114       
PG10  23227.082910  11806.794789   6285.141413      1.457499  6  6  9 127       
PG11  12319.087774 -14550.004890  17910.506824   -607.352399  7  5  3  90       
PG12 -23257.916363  10907.988356  -6395.209516    332.718311  9  5  4  91       
PG13 -20762.573368  -9206.941305  13547.092981   -153.132968  9  5  5 104       
PG14  13222.580548  21729.310828   8167.582237     31.198033  6  3  5  94       
PG15 -18456.080193   3197.534971  18851.525185   -274.354005  9  7  6 106       
PG16  24381.210097   1071.541527 -11004.894812    -81.264484 10  6 10 111       
PG17 -14264.149889 -21227.398931   7863.381957   -189.458059  5  5  4 106       
PG18  -4135.107409  17495.869465  19979.733972    438.545822  6  5  3  87       
PG19  11027.130460 -10030.686336  21778.641330   -520.869796  7  5  4  90       
PG20 -22714.334666  13108.499402   4307.944144    359.411817  7  2  3 107       
PG21  -1652.919981  26105.440862   4139.705207   -483.433068  5  3  4 105       
PG22  10333.527421  13095.734071  20930.353290    396.348211  5  3  3 101       
PG23  13094.553298  -8797.360482 -21243.853288   -136.181948  9  7  3 115       
PG24 -14237.623380  15982.688835  15589.183836     -5.555995  8  6  5  94       
PG25 -13198.492122  16104.116659 -16490.905425    -45.849176 10  9  9  75       
PG26  17683.545789   7526.385932 -18337.206582    -68.611745 15 10 13 118       
PG27  22306.528652   9705.092350  10781.051759     23.763854  6  4  3 113       
PG28  -5329.621336 -13954.421632  22592.773678    471.147865  5  4  3  90       
PG29  -3029.221516  16575.958695 -20528.159038    637.094702  5  3  4  94       
PG30  -1293.044344 -24125.737056  10938.442602     33.314282  6  2  3  79       
PG31   8696.515861  16963.201223 -18215.726388    300.963243  6  6  3 111       
PG32  25743.381535  -4571.991153   2437.147128    -28.291086 11  7  5  63       
*  2015  9 30 13 15  0.00000000
PG01  13362.265120 -16611.960771  15640.379893      1.457133  4  4    109       
PG02 -14221.464916  -8209.712432 -20564.414560    590.987300  5  5  7  98       
PG03  22238.707885 -13393.302898  -5662.260694     21.145275  7  7  7 101       
PG04  15500.208411  -7014.320039  19984.322101    -26.523349  6  4  2  92       
PG05 -23367.176762   -233.887421 -12863.434282   -190.025639  7  5  4  81       
PG06  -8471.477129 -19608.646935 -15790.537432     67.924778  7  3  5  78       
PG07   5875.401292 -25545.792966  -2529.572814    483.846793  8  5  3 121       
PG08  20000.754963   -109.898634  17511.593813     -7.090294  5  6  3  96       
PG09   1794.583016 -16815.373944 -20484.050885     -6.389530  7  5    104       
PG10  23548.145736  12327.369718   3552.187800      1.458388  6  7  9 126       
PG11  12930.369913 -12378.992303  19049.289144   -607.354672  8  5  3 103       
PG12 -23844.548161  10904.959855  -3543.331802    332.720719  9  5  4  88       
PG13 -21621.107059 -10372.511881  11167.251548   -153.135557  9  6  5  99       
PG14  12330.068852  21149.707491  10743.875608     31.195649  6  3  5 104       
PG15 -20037.828768   1821.462496  17400.353263   -274.355898  9  8  6 100       
PG16  23100.922486   1571.890773 -13423.340467    -81.260732  9  6 10 104       
PG17 -13400.575979 -20686.198427  10472.199543   -189.459289  5  4  4 105       
PG18  -6181.080134  18147.074966  18779.444723    438.548813  6  5  3  75       
PG19  12811.156414  -8248.418932  21589.595198   -520.870393  8  6  4  84       
PG20 -23178.675909  12944.624310   1552.970369    359.414672  7  3  3 101       
PG21  -2034.130551  26293.089360   1341.315385   -483.435335  6  3  4 115       
PG22   8138.193256  14012.932245  21290.157717    396.351458  5  3  3 108       
PG23  14935.206400  -7209.266517 -20663.086627   -136.183816 10  7  4 118       
PG24 -14142.523663  14073.149471  17419.972282     -5.556641  8  6  5  91       
PG25 -14896.846544  16572.486879 -14424.795164    -45.853890 10 10  9  73       
PG26  15689.761520   8408.646365 -19715.708679    -68.622733 16 10 13  94       
PG27  23017.117265  10549.882760   8201.278815     23.766637  6  5  2 118       
PG28  -2985.390098 -14633.928925  22587.139773    471.150297  4  4  3  80       
PG29  -4832.147632  14997.333571 -21375.530592    637.096567  6  4  3  96       
PG30   -786.021150 -25143.746413   8391.031286     33.319993  7  2  3  70       
PG31   8143.473975  18908.026639 -16455.470723    300.961937  7  6  3  94       
PG32  25397.433781  -4129.784236   5251.269230    -28.280810 11  7  6  99       
EOF
